[{"OBJECT_NAME":"ONEWEB-0714","OBJECT_ID":"2022-166AR","EPOCH":"2026-02-04T04:12:36.767520","MEAN_MOTION":13.21825521,"ECCENTRICITY":0.00015161,"INCLINATION":87.9189,"RA_OF_ASC_NODE":270.5168,"ARG_OF_PERICENTER":76.0076,"MEAN_ANOMALY":284.1226,"EPHEMERIS_TYPE":0,"CLASSIFICATION_TYPE":"U","NORAD_CAT_ID":54681,"ELEMENT_SET_NO":999,"REV_AT_EPOCH":15396,"BSTAR":-2.6415675e-5,"MEAN_MOTION_DOT":2.0e-8,"MEAN_MOTION_DDOT":0},{"OBJECT_NAME":"ONEWEB-0532","OBJECT_ID":"2023-004A","EPOCH":"2026-02-04T01:39:30.558816","MEAN_MOTION":13.17647239,"ECCENTRICITY":0.00022195,"INCLINATION":87.9104,"RA_OF_ASC_NODE":32.3087,"ARG_OF_PERICENTER":87.3411,"MEAN_ANOMALY":272.7975,"EPHEMERIS_TYPE":0,"CLASSIFICATION_TYPE":"U","NORAD_CAT_ID":55140,"ELEMENT_SET_NO":999,"REV_AT_EPOCH":15005,"BSTAR":-0.00029007377,"MEAN_MOTION_DOT":-1.0e-6,"MEAN_MOTION_DDOT":0},{"OBJECT_NAME":"ONEWEB-0533","OBJECT_ID":"2023-004B","EPOCH":"2026-02-04T04:40:34.322880","MEAN_MOTION":13.12441959,"ECCENTRICITY":0.0001878,"INCLINATION":87.8953,"RA_OF_ASC_NODE":17.0644,"ARG_OF_PERICENTER":79.0368,"MEAN_ANOMALY":281.0972,"EPHEMERIS_TYPE":0,"CLASSIFICATION_TYPE":"U","NORAD_CAT_ID":55141,"ELEMENT_SET_NO":999,"REV_AT_EPOCH":15061,"BSTAR":-0.00069330194,"MEAN_MOTION_DOT":-2.37e-6,"MEAN_MOTION_DDOT":0},{"OBJECT_NAME":"ONEWEB-0541","OBJECT_ID":"2023-004C","EPOCH":"2026-02-04T01:03:58.688064","MEAN_MOTION":13.11414823,"ECCENTRICITY":0.00019159,"INCLINATION":87.882,"RA_OF_ASC_NODE":47.5431,"ARG_OF_PERICENTER":92.6393,"MEAN_ANOMALY":267.4954,"EPHEMERIS_TYPE":0,"CLASSIFICATION_TYPE":"U","NORAD_CAT_ID":55142,"ELEMENT_SET_NO":999,"REV_AT_EPOCH":14849,"BSTAR":-0.00065610611,"MEAN_MOTION_DOT":-2.2e-6,"MEAN_MOTION_DDOT":0},{"OBJECT_NAME":"ONEWEB-0543","OBJECT_ID":"2023-004D","EPOCH":"2026-02-04T07:17:52.359072","MEAN_MOTION":13.18686937,"ECCENTRICITY":0.00015603,"INCLINATION":87.9199,"RA_OF_ASC_NODE":1.8658,"ARG_OF_PERICENTER":80.1179,"MEAN_ANOMALY":280.0129,"EPHEMERIS_TYPE":0,"CLASSIFICATION_TYPE":"U","NORAD_CAT_ID":55143,"ELEMENT_SET_NO":999,"REV_AT_EPOCH":15218,"BSTAR":0.00030360836,"MEAN_MOTION_DOT":1.33e-6,"MEAN_MOTION_DDOT":0},{"OBJECT_NAME":"ONEWEB-0544","OBJECT_ID":"2023-004E","EPOCH":"2026-02-04T07:08:20.884416","MEAN_MOTION":13.18684002,"ECCENTRICITY":0.00017654,"INCLINATION":87.9203,"RA_OF_ASC_NODE":1.8609,"ARG_OF_PERICENTER":90.3103,"MEAN_ANOMALY":269.8232,"EPHEMERIS_TYPE":0,"CLASSIFICATION_TYPE":"U","NORAD_CAT_ID":55144,"ELEMENT_SET_NO":999,"REV_AT_EPOCH":15218,"BSTAR":0.00010754458,"MEAN_MOTION_DOT":5.5e-7,"MEAN_MOTION_DDOT":0},{"OBJECT_NAME":"ONEWEB-0560","OBJECT_ID":"2023-004F","EPOCH":"2026-02-04T06:58:51.745152","MEAN_MOTION":13.18687274,"ECCENTRICITY":0.00017086,"INCLINATION":87.9207,"RA_OF_ASC_NODE":1.8514,"ARG_OF_PERICENTER":89.3838,"MEAN_ANOMALY":270.749,"EPHEMERIS_TYPE":0,"CLASSIFICATION_TYPE":"U","NORAD_CAT_ID":55145,"ELEMENT_SET_NO":999,"REV_AT_EPOCH":15219,"BSTAR":2.2562639e-5,"MEAN_MOTION_DOT":2.2e-7,"MEAN_MOTION_DDOT":0},{"OBJECT_NAME":"ONEWEB-0565","OBJECT_ID":"2023-004G","EPOCH":"2026-02-04T06:49:21.941472","MEAN_MOTION":13.18687633,"ECCENTRICITY":0.00020587,"INCLINATION":87.9199,"RA_OF_ASC_NODE":1.8932,"ARG_OF_PERICENTER":96.2877,"MEAN_ANOMALY":263.849,"EPHEMERIS_TYPE":0,"CLASSIFICATION_TYPE":"U","NORAD_CAT_ID":55146,"ELEMENT_SET_NO":999,"REV_AT_EPOCH":15218,"BSTAR":0.00021905454,"MEAN_MOTION_DOT":9.9e-7,"MEAN_MOTION_DDOT":0},{"OBJECT_NAME":"ONEWEB-0567","OBJECT_ID":"2023-004H","EPOCH":"2026-02-04T06:39:51.719616","MEAN_MOTION":13.18687172,"ECCENTRICITY":0.00018726,"INCLINATION":87.9208,"RA_OF_ASC_NODE":1.866,"ARG_OF_PERICENTER":95.356,"MEAN_ANOMALY":264.7786,"EPHEMERIS_TYPE":0,"CLASSIFICATION_TYPE":"U","NORAD_CAT_ID":55147,"ELEMENT_SET_NO":999,"REV_AT_EPOCH":15218,"BSTAR":0.00011163868,"MEAN_MOTION_DOT":5.7e-7,"MEAN_MOTION_DDOT":0},{"OBJECT_NAME":"ONEWEB-0569","OBJECT_ID":"2023-004J","EPOCH":"2026-02-04T07:21:43.555104","MEAN_MOTION":13.13470593,"ECCENTRICITY":0.00013846,"INCLINATION":87.9035,"RA_OF_ASC_NODE":346.6218,"ARG_OF_PERICENTER":113.4402,"MEAN_ANOMALY":246.6873,"EPHEMERIS_TYPE":0,"CLASSIFICATION_TYPE":"U","NORAD_CAT_ID":55148,"ELEMENT_SET_NO":999,"REV_AT_EPOCH":15273,"BSTAR":0.00061714284,"MEAN_MOTION_DOT":2.38e-6,"MEAN_MOTION_DDOT":0},{"OBJECT_NAME":"ONEWEB-0570","OBJECT_ID":"2023-004K","EPOCH":"2026-02-04T06:25:35.651136","MEAN_MOTION":13.18683947,"ECCENTRICITY":0.00023292,"INCLINATION":87.9206,"RA_OF_ASC_NODE":1.8671,"ARG_OF_PERICENTER":86.6685,"MEAN_ANOMALY":273.4713,"EPHEMERIS_TYPE":0,"CLASSIFICATION_TYPE":"U","NORAD_CAT_ID":55149,"ELEMENT_SET_NO":999,"REV_AT_EPOCH":15217,"BSTAR":0.00014573167,"MEAN_MOTION_DOT":7.0e-7,"MEAN_MOTION_DDOT":0},{"OBJECT_NAME":"ONEWEB-0571","OBJECT_ID":"2023-004L","EPOCH":"2026-02-04T06:16:06.396096","MEAN_MOTION":13.18686745,"ECCENTRICITY":0.00021955,"INCLINATION":87.9201,"RA_OF_ASC_NODE":1.8669,"ARG_OF_PERICENTER":118.2148,"MEAN_ANOMALY":241.9207,"EPHEMERIS_TYPE":0,"CLASSIFICATION_TYPE":"U","NORAD_CAT_ID":55150,"ELEMENT_SET_NO":999,"REV_AT_EPOCH":15218,"BSTAR":-0.00014937798,"MEAN_MOTION_DOT":-4.6e-7,"MEAN_MOTION_DDOT":0},{"OBJECT_NAME":"ONEWEB-0572","OBJECT_ID":"2023-004M","EPOCH":"2026-02-03T11:48:27.872064","MEAN_MOTION":13.1764811,"ECCENTRICITY":0.00019449,"INCLINATION":87.9095,"RA_OF_ASC_NODE":32.4298,"ARG_OF_PERICENTER":94.297,"MEAN_ANOMALY":265.8384,"EPHEMERIS_TYPE":0,"CLASSIFICATION_TYPE":"U","NORAD_CAT_ID":55151,"ELEMENT_SET_NO":999,"REV_AT_EPOCH":14987,"BSTAR":-5.5317838e-5,"MEAN_MOTION_DOT":-9.0e-8,"MEAN_MOTION_DDOT":0},{"OBJECT_NAME":"ONEWEB-0573","OBJECT_ID":"2023-004N","EPOCH":"2026-02-03T10:04:42.097152","MEAN_MOTION":13.18685681,"ECCENTRICITY":0.00023884,"INCLINATION":87.9201,"RA_OF_ASC_NODE":2.0364,"ARG_OF_PERICENTER":99.459,"MEAN_ANOMALY":260.6813,"EPHEMERIS_TYPE":0,"CLASSIFICATION_TYPE":"U","NORAD_CAT_ID":55152,"ELEMENT_SET_NO":999,"REV_AT_EPOCH":15206,"BSTAR":-0.00079456699,"MEAN_MOTION_DOT":-3.0e-6,"MEAN_MOTION_DDOT":0},{"OBJECT_NAME":"ONEWEB-0588","OBJECT_ID":"2023-004P","EPOCH":"2026-02-03T20:50:46.915584","MEAN_MOTION":13.18687305,"ECCENTRICITY":0.00022394,"INCLINATION":87.9206,"RA_OF_ASC_NODE":1.9469,"ARG_OF_PERICENTER":89.2021,"MEAN_ANOMALY":270.9368,"EPHEMERIS_TYPE":0,"CLASSIFICATION_TYPE":"U","NORAD_CAT_ID":55153,"ELEMENT_SET_NO":999,"REV_AT_EPOCH":15212,"BSTAR":2.767215e-6,"MEAN_MOTION_DOT":1.4e-7,"MEAN_MOTION_DDOT":0},{"OBJECT_NAME":"ONEWEB-0598","OBJECT_ID":"2023-004Q","EPOCH":"2026-02-04T07:51:43.606656","MEAN_MOTION":13.11416818,"ECCENTRICITY":0.0001737,"INCLINATION":87.8818,"RA_OF_ASC_NODE":47.5098,"ARG_OF_PERICENTER":110.0166,"MEAN_ANOMALY":250.1149,"EPHEMERIS_TYPE":0,"CLASSIFICATION_TYPE":"U","NORAD_CAT_ID":55154,"ELEMENT_SET_NO":999,"REV_AT_EPOCH":14848,"BSTAR":0.0019052987,"MEAN_MOTION_DOT":6.88e-6,"MEAN_MOTION_DDOT":0},{"OBJECT_NAME":"ONEWEB-0599","OBJECT_ID":"2023-004R","EPOCH":"2026-02-04T01:27:21.581280","MEAN_MOTION":13.17647876,"ECCENTRICITY":0.00016769,"INCLINATION":87.9096,"RA_OF_ASC_NODE":32.3159,"ARG_OF_PERICENTER":91.835,"MEAN_ANOMALY":268.2974,"EPHEMERIS_TYPE":0,"CLASSIFICATION_TYPE":"U","NORAD_CAT_ID":55155,"ELEMENT_SET_NO":999,"REV_AT_EPOCH":14995,"BSTAR":9.62041e-6,"MEAN_MOTION_DOT":1.7e-7,"MEAN_MOTION_DDOT":0}]
