ONEWEB-0714             
1 54681U 22166AR  26035.17542555  .00000002  00000+0 -26416-4 0  9996
2 54681  87.9189 270.5168 0001516  76.0076 284.1226 13.21825521153965
ONEWEB-0532             
1 55140U 23004A   26035.06910369 -.00000100  00000+0 -29007-3 0  9997
2 55140  87.9104  32.3087 0002219  87.3411 272.7975 13.17647239150050
ONEWEB-0533             
1 55141U 23004B   26035.19484170 -.00000237  00000+0 -69330-3 0  9992
2 55141  87.8953  17.0644 0001878  79.0368 281.0972 13.12441959150618
ONEWEB-0541             
1 55142U 23004C   26035.04442926 -.00000220  00000+0 -65611-3 0  9990
2 55142  87.8820  47.5431 0001915  92.6393 267.4954 13.11414823148495
ONEWEB-0543             
1 55143U 23004D   26035.30407823  .00000133  00000+0  30361-3 0  9992
2 55143  87.9199   1.8658 0001560  80.1179 280.0129 13.18686937152180
ONEWEB-0544             
1 55144U 23004E   26035.29746394  .00000055  00000+0  10754-3 0  9997
2 55144  87.9203   1.8609 0001765  90.3103 269.8232 13.18684002152181
ONEWEB-0560             
1 55145U 23004F   26035.29087668  .00000022  00000+0  22563-4 0  9996
2 55145  87.9207   1.8514 0001708  89.3838 270.7490 13.18687274152193
ONEWEB-0565             
1 55146U 23004G   26035.28428173  .00000099  00000+0  21905-3 0  9998
2 55146  87.9199   1.8932 0002058  96.2877 263.8490 13.18687633152188
ONEWEB-0567             
1 55147U 23004H   26035.27768194  .00000057  00000+0  11164-3 0  9998
2 55147  87.9208   1.8660 0001872  95.3560 264.7786 13.18687172152186
ONEWEB-0569             
1 55148U 23004J   26035.30675411  .00000238  00000+0  61714-3 0  9999
2 55148  87.9035 346.6218 0001384 113.4402 246.6873 13.13470593152738
ONEWEB-0570             
1 55149U 23004K   26035.26777374  .00000070  00000+0  14573-3 0  9991
2 55149  87.9206   1.8671 0002329  86.6685 273.4713 13.18683947152179
ONEWEB-0571             
1 55150U 23004L   26035.26118514 -.00000046  00000+0 -14938-3 0  9998
2 55150  87.9201   1.8669 0002195 118.2148 241.9207 13.18686745152188
ONEWEB-0572             
1 55151U 23004M   26034.49198926 -.00000009  00000+0 -55318-4 0  9995
2 55151  87.9095  32.4298 0001944  94.2970 265.8384 13.17648110149871
ONEWEB-0573             
1 55152U 23004N   26034.41993168 -.00000300  00000+0 -79457-3 0  9992
2 55152  87.9201   2.0364 0002388  99.4590 260.6813 13.18685681152066
ONEWEB-0588             
1 55153U 23004P   26034.86859856  .00000014  00000+0  27672-5 0  9991
2 55153  87.9206   1.9469 0002239  89.2021 270.9368 13.18687305152128
ONEWEB-0598             
1 55154U 23004Q   26035.32758804  .00000688  00000+0  19053-2 0  9993
2 55154  87.8818  47.5098 0001737 110.0166 250.1149 13.11416818148489
ONEWEB-0599             
1 55155U 23004R   26035.06066645  .00000017  00000+0  96204-5 0  9992
2 55155  87.9096  32.3159 0001676  91.8350 268.2974 13.17647876149957
